#dP2022  2  6  0  0  0.00000000      96 __u+U ITR00 FIT  IAC
## 2196      0.00000000   900.00000000 59616 0.0000000000000
+  124   C01C02C03C04C05C06C07C08C09C10C11C12C13C14C16C19C20
+        C21C22C23C24C25C26C27C28C29C30C32C33C34C35C36C37C38
+        C39C40C41C42C43C44C45C46C60E01E02E03E04E05E07E08E09
+        E11E12E13E14E15E18E21E24E25E26E27E30E31E33E36G01G02
+        G03G04G05G06G07G08G09G10G11G12G13G14G15G16G17G18G19
+        G20G21G22G23G24G25G26G27G28G29G30G31G32J01J02J03R01
+        R02R03R04R05R06R07R08R09R10R11R12R13R14R15R17R18R19
+        R20R21R22R23R24  0  0  0  0  0  0  0  0  0  0  0  0
++        15 14 15 15 14  9  9  9  8  8  9  9  8  9  9  6  6
++         6  6  7  7  7  7  7  7  7  7  7  7  7  7  7  7  8
++         8  8  8  7  7  7  7  7 17  4  4  4  4  4  5  4  4
++         5  4  4  4  4  5  4  4  4  4  4  4  4  5  4  3  4
++         3  4  4  3  4  4  4  3  4  4  4  3  5  4  3  4  3
++         4  3  4  4  3  4  4  4  4  4  4  4  3  8  8  8  7
++         6  6  6  5 13  5  6  6 13  8  6  7  6  6  6  6  7
++         7  6  7 13  6  0  0  0  0  0  0  0  0  0  0  0  0
%c M  cc GPS ccc cccc cccc cccc cccc ccccc ccccc ccccc ccccc
%c cc cc ccc ccc cccc cccc cccc cccc ccccc ccccc ccccc ccccc
%f  0.0000000  0.000000000  0.00000000000  0.000000000000000
%f  0.0000000  0.000000000  0.00000000000  0.000000000000000
%i    0    0    0    0      0      0      0      0         0
%i    0    0    0    0      0      0      0      0         0
/* INFORMATION & ANALYSIS CENTER (IAC)            RAPID DATA
/* S/V CLOCKS ARE ALIGNED TO GNSS TIME                      
/* G:C1WC2W R:C1PC2P E:C1XC5X C:C2IC6I J:C1CC2S             
/* PCV:IGS14_2194 OL/AL:FES2004  NONE     YN ORB:CoN CLK:CoN
*  2022 02 06 22 15  0.00000000
PC01 -34364.644396  24401.364594    -44.024327   -156.152001
PC02   4394.288239  41970.625482   1167.990080    638.784020
PC03 -14842.644591  39496.263692    562.706611    750.450768
PC04 -39631.610986  14355.479228   -416.653052      6.656969
PC05  21875.706399  36054.785830   1527.370794   -493.002379
PC06  -2383.840180  35630.560726  22569.841771      6.236997
PC07 -12471.359869  25588.093899 -31124.870721    -21.418519
PC08 -17762.131151  36547.150999  10958.414227    115.785849
PC09   3626.111882  39625.244414  14977.296172   -500.385224
PC10  -4518.073788  26511.853172 -32248.814656    139.879486
PC11  11306.545610  25486.203001    798.640373   -224.030554
PC12  -1282.341370  22987.869209 -15720.959961    680.918119
PC13 -11406.459612  36723.547916  17116.982196   -124.285713
PC14  12846.152912  14937.520183  19765.747695    458.017918
PC16  -3135.013905  34625.542660  24169.216405     75.947530
PC19 -21796.417657 -11236.830540 -13305.092262    900.630050
PC20  -4046.463985 -15940.381691 -22532.392179   -817.836568
PC21 -17295.282612  11319.067073  18774.455533   -956.610658
PC22 -27633.937120     91.964039   3976.812187   -957.817726
PC23  20465.459899  -6379.188018 -17875.334153   -966.046058
PC24  -5338.756503  23866.741414 -13427.408214   -943.750999
PC25  11774.572382  11441.126115 -22574.252403   -783.243794
PC26 -16953.020173  22038.576486   2107.597114    782.798165
PC27   8366.521901 -16660.178117  20742.668438    673.343803
PC28  17418.962702   2454.375562  21668.841363     29.716868
PC29 -17059.391869 -19842.900731  -9689.912700    511.664551
PC30  -6055.249384 -25902.460363   8388.411508    492.804307
PC32  17248.943637 -11421.058661 -18710.091532   -963.110542
PC33  21762.631538  11196.212529  13404.293951   -955.953058
PC34   6703.121977  26044.643207  -7509.041960   -474.811970
PC35 -17740.750102  -2577.236470 -21380.601554    127.879242
PC36 -11122.757248 -12180.878890  22526.067645   -894.131866
PC37  17986.623213 -21117.902082  -3166.841016   -966.202061
PC38 -20713.680239  36366.165857   4392.168438    209.583848
PC39  -6064.233243  30745.845480  28291.142987     34.752990
PC40 -17144.291605  19310.997872 -33377.382341    242.190634
PC41  27683.963042    134.885343  -3487.394418   -933.250427
PC42   2887.481985  16023.606381  22707.000875   -930.195303
PC43  16804.946181  20368.073575   9063.706703   -943.326164
PC44  -8021.766705  16865.159324 -20753.818753    556.417904
PC45 -20412.955425   6656.155706  17806.064209    673.762639
PC46   4265.327246 -23483.487129  14490.171181   -154.888816
PC60   7299.211397  41527.004825   -657.474114     -0.272552
PE01  19157.935643 -18601.528341  12784.070585   -574.122376
PE02 -19001.008052  18638.625698 -12931.282849    278.574953
PE03  -8305.996473  14961.136362  24148.468167   -525.049565
PE04 -11451.700348 -21859.276897 -16339.805921   -959.107981
PE05 -23550.524942   -857.947224  17910.084699   -211.485229
PE07  24883.932664  15970.222673  -1327.248151   -636.370980
PE08  11979.214128  21748.754756  16107.540318   5859.625112
PE09 -25019.554208 -15751.632677   1555.174964   5369.116820
PE11 -13348.800885 -14515.885091 -22069.858204   4511.213205
PE12  -2454.316370 -28653.034809  -6959.819679   4772.283138
PE13  13073.271588  15172.933128  21808.640551    426.323254
PE14 -25128.956043  -1415.170226 -20595.594235  -1736.708975
PE15   2434.770851  28699.771559   6854.495372    764.832813
PE18  17697.153243    304.262831  15319.991292  -1822.933431
PE21  27622.615513  -9572.580626  -4686.264003   -715.667382
PE24 -19758.295149  -6569.687469  21009.986962  -1376.547995
PE25 -27627.131505   9395.431736   4925.030048   -562.769329
PE26  16049.407972  -8274.438389  23464.447156   -775.673573
PE27  20730.206116   5512.182703 -20406.308551   -226.534616
PE30    458.158583  17678.679287 -23745.491344   -253.279057
PE31  -1676.047754 -17248.129230  24001.421561   -491.818157
PE33   9615.340655 -25239.639513  12109.096042   -459.671843
PE36 -15966.158823   7201.014582 -23854.791548   -328.697102
PG01  13342.968607 -18210.280664  13426.235782    437.980448
PG02 -14451.022392  -3453.534698 -21351.770386   -650.359616
PG03  21257.278019 -13135.850373  -8944.463188   -109.914506
PG04  12038.758419  -9428.993868 -21716.556881   -191.045126
PG05 -25478.862901   4245.997629  -6677.467700    -70.532175
PG06  -6862.004052 -19514.158401 -16547.429601    193.524863
PG07   4888.397127 -25813.345636   1286.420048    308.321349
PG08  19529.026438    415.894383  18131.937277    -55.138281
PG09    870.976992 -17835.792636 -19721.353245   -355.229676
PG10   6170.087590  13778.888079  22003.741880   -313.417786
PG11 -14135.567212  -5761.195098 -21740.004431    -97.709636
PG12 -23474.663588  10406.266123  -6768.936293   -167.145017
PG13 -20471.037411  -9466.393095  14000.811127    257.507760
PG14  -4854.437341 -14594.359496  21649.187605    -80.709999
PG15 -19460.562893   2360.157222  17656.475808    -85.803196
PG16  24996.714240   1363.947192  -9809.678236   -466.056754
PG17 -11408.172974 -21792.175531  10395.728331    571.682470
PG18  -5401.225121  25920.910170   1189.338859    245.609228
PG19 -16757.738072 -20642.419235   1691.256428    115.530810
PG20 -21465.546216  -1828.080462 -15373.738840    516.821058
PG21  15545.137824  -8391.230489  20317.768017    157.586984
PG22  18327.141712  19348.337502   -372.272476    209.733788
PG23  -6666.941720  16607.505595  19583.558826      3.764700
PG24 -14291.450813  14682.945428  16383.050297    275.652614
PG25 -13605.724086  16281.578688 -16081.596233    281.849193
PG26  17115.165391   8250.390210 -18758.760747    181.019080
PG27  22155.198509  10780.495736  10225.670691    107.487876
PG28 -13024.528491 -11569.470574  20506.920301    406.041523
PG29  -4483.790642  15673.610882 -21001.519621   -476.959391
PG30  -1371.861230 -24621.130041   9605.477109   -511.759169
PG31   8892.546626  17280.832290 -18013.639622   -163.520319
PG32  15835.819180  20454.388799   6581.586097    -63.177271
PJ01 -29598.045618  19862.389243  27561.788045    259.938110
PJ02 -36340.961452  20107.219954  -2801.203620     -1.198437
PJ03 -19367.720333  25814.759168 -22477.793200     -0.428698
PR01   -825.241277 -11521.027058 -22742.183231      7.070327
PR02 -19511.726501 -11504.433676 -11623.120204    508.874853
PR03 -24476.086395  -4287.072666   5673.408732     51.093358
PR04 -15635.476858   4936.908991  19563.299437    126.617695
PR05   1787.593953  11577.883826  22672.691638     87.249289
PR06  20527.203788  10720.190594  10714.619514    -31.233165
PR07  24422.456198   4024.543145  -6233.133598     31.398111
PR08  15618.507567  -5066.604170 -19474.768802    -63.451348
PR09   7506.686235   8466.227255 -22849.536409     38.098592
PR10  17611.320103  -5547.336644 -17652.035437    -79.554629
PR11  18587.193268 -17387.315477  -1614.983573     46.000710
PR12   8080.228914 -18377.197558  15771.596087     17.103722
PR13  -6420.316447  -9111.376147  22922.516957    -17.961791
PR14 -18181.552536   6466.660063  16692.472587     74.057458
PR15 -18607.281411  17423.349335    882.400614     98.371722
PR17 -11585.101314  -5168.604540 -22122.635670    499.331250
PR18  -6721.568920  12712.599896 -21063.988869    106.380940
PR19    392.198652  23506.667508  -9894.264460   -177.239054
PR20   9092.072963  21517.625012  10315.904414    -64.456141
PR21  11300.744155   3642.741408  22578.307082   -276.011684
PR22   6418.801974 -13377.049849  20710.151165   -163.048652
PR23  -3878.494718 -24890.241179   3986.525072    -29.422381
PR24  -9960.715453 -20842.975826 -10805.971164     79.047014
EOF
